#dP2025  1 27  0  0  0.00000000      97 __u+U IGS20 FIT  IAC
## 2351  86400.00000000   900.00000000 60702 0.0000000000000
+  116   C06C07C09C10C11C12C13C14C16C19C20C21C22C23C24C25C26
+        C27C28C29C30C32C33C34C35C36C37C38C39C40C41C42C43C44
+        C45E02E03E04E05E06E07E08E09E10E11E13E14E15E18E19E21
+        E24E25E26E27E29E30E31E33E34E36G01G02G03G04G05G06G07
+        G08G09G10G11G12G13G14G15G16G17G18G19G20G21G22G23G24
+        G25G26G27G28G29G30G31G32J02J03R01R02R03R04R05R06R07
+        R08R09R11R12R14R15R16R17R18R19R20R21R22R24  0  0  0
++         7  7  7  7  7  7  7  6  7  5  5  6  5  5  5  6  6
++         5  5  5  6  6  5  5  5  5  5  6  6  6  6  6  5  6
++         6  4  4  4  4  4  4  4  4  4  4  4  4  4  4  4  4
++         4  4  4  4  4  4  4  4  4  4  3  3  3  3  3  3  3
++         4  3  3  3  3  3  3  4  3  3  3  3  3  3  3  3  3
++         3  3  3  3  3  3  3  3 10 11  7  7  6  6  6  6  6
++         6  6  6  6  6  6  6  6  6  7  7  7  7  6  0  0  0
%c M  cc GPS ccc cccc cccc cccc cccc ccccc ccccc ccccc ccccc
%c cc cc ccc ccc cccc cccc cccc cccc ccccc ccccc ccccc ccccc
%f  1.2500000  1.025000000  0.00000000000  0.000000000000000
%f  0.0000000  0.000000000  0.00000000000  0.000000000000000
%i    0    0    0    0      0      0      0      0         0
%i    0    0    0    0      0      0      0      0         0
/* INFORMATION & ANALYSIS CENTER (IAC)            FINAL DATA
/* S/V CLOCKS ARE ALIGNED TO GNSS TIME                      
/* G:C1WC2W R:C1PC2P E:C1XC5X C:C2IC6I J:C1CC2S             
/* PCV:IGS20_2350 OL/AL:FES2004  NONE     YN ORB:CoN CLK:CoN
*  2025 01 27  5  0  0.00000000
PC06 -18352.366651  31158.708355  21529.556336    715.912485
PC07  -5860.048758  38484.177977  16610.975463    208.803117
PC09 -10229.677116  29798.264986  28204.660215   -871.838818
PC10    123.392671  41107.281540  11023.611619   -415.939690
PC11  17993.948132  -2877.533738 -21064.726052    356.156679
PC12   7402.635424  16193.566330 -21443.061980   -207.952780
PC13   2187.506010  23038.247057 -35003.813496     60.796318
PC14  19430.342095   7554.093882  18591.484291   -705.518871
PC16 -19560.518215  30927.861455  20930.172969    -92.957649
PC19 -16238.005506   2389.805210 -22539.488761   -962.371446
PC20 -19568.441857 -14880.237352 -13165.943153   -868.374609
PC21  11268.305421  24982.840949  -5316.836034   -904.013677
PC22  -3396.146279  19519.822011 -19664.013628    241.825057
PC23  14250.807219 -14431.548858 -19171.266530   -954.275779
PC24  23763.527034   7963.039750  12221.560203    677.434542
PC25  26911.059745  -5318.875058  -5081.836902    628.544964
PC26   7326.008336  15472.926701  22006.677457   -411.475853
PC27   -623.233969 -22805.145582  16060.473213    429.022830
PC28  11568.480979 -25276.975285   2487.232641    336.126744
PC29 -18922.284412  12190.599207  16488.562380    394.511915
PC30 -13748.777542  -8562.925473  22717.489765     90.179049
PC32 -11354.650246 -24892.233008   5469.493603   -897.119927
PC33  16321.261984  -2387.764628  22516.859378   -949.264183
PC34  14717.255104   6753.269909 -22739.946421    616.189935
PC35 -11136.448783  25512.261532  -1647.753146    142.361941
PC36 -26955.621715   4903.097538   5355.500541    257.399454
PC37  -6494.446772 -15734.831868 -22118.916477   -908.029941
PC38 -13370.237619  18560.666697 -35349.689123    205.210271
PC39 -24234.277281  31452.315483  13839.278101    -10.823037
PC40 -10110.689923  36083.870359  19635.568572   -117.212690
PC41   4239.089059 -18811.733686  20220.165383   -882.520546
PC42  19425.192418  16424.298356  11558.156325   -579.141178
PC43  19029.049818 -11478.054345 -16905.822284     99.592889
PC44   1578.900683  22852.677541 -15930.307151    722.923613
PC45 -14957.486284  14046.065255  18911.640698   -219.543389
PE02  16819.587513  21255.778917  11856.694300    193.099043
PE03   7008.914980  25982.579774  12334.767240   -169.195501
PE04 -15963.109606  -7887.113543 -23638.839416   -142.626623
PE05  -5867.099893  28392.361744  -5967.540268   4822.497264
PE06 -17095.736761   3607.669903 -23903.937843    -75.243637
PE07  15476.522376 -13928.938664  21040.385592   -165.780220
PE08  15660.900677   8677.523644  23572.782819   -407.162921
PE09 -15377.162199  13886.121607 -21143.161426   -753.341824
PE10 -27252.110271   6797.055370   9344.667183   -685.938145
PE11 -26231.343719  13654.871926  -1033.978855   -576.432727
PE13  26415.134632 -13366.301021    483.264092    -29.649287
PE14 -13885.009571 -11312.088265  16566.041800    642.304700
PE15  23858.572997    770.080084 -17499.245803   -153.485614
PE18  14741.287373  21379.671620 -18249.345120   1044.157348
PE19  -5752.909506 -26883.490412 -10966.245723   1293.412216
PE21   1979.765361 -18153.184599 -23306.338235   -642.652232
PE24 -20216.612803   4217.137136  21191.070007  -1235.192683
PE25  -2477.894421  17917.902746  23424.037675     13.671048
PE26  13009.702097 -19545.675458  18040.405381   -142.331474
PE27  20168.979168  -4258.431409 -21244.717734   -566.921072
PE29   5745.539002 -28498.040820   5604.741532    -65.506678
PE30  26224.780542  11882.225600  -6855.065107  -1179.020181
PE31 -26236.334677 -11983.438258   6668.102864    -52.170952
PE33  -6891.775121 -14441.349068  24912.295248     16.438469
PE34   7332.385877  14221.212243 -24898.676000   -160.055844
PE36 -13526.194104  19399.974228 -17781.427376   -344.763256
PG01  -8508.294479  18082.883709 -17485.719454     79.592023
PG02  -9203.768679  19487.637657 -14788.617345   -257.956167
PG03   2679.080212  16915.182663 -20497.692831    653.464809
PG04   -594.550287  26463.924327   -507.062942    518.158678
PG05  12314.096228  -9991.293221  21145.384978   -200.206846
PG06  22984.985695  -3754.111493 -12819.606478   -146.716519
PG07   8179.935688  13397.030254  21967.061691    -13.386959
PG08  -6619.810189  22785.767619  11314.703022    468.956917
PG09   6974.961199  24225.661660   8165.460789    544.442272
PG10 -24324.787407 -10191.467302  -4174.707652   -293.773233
PG11  23727.111545 -11731.436979  -1735.985755   -750.299079
PG12   1196.332116 -16625.351153 -20980.509836   -566.794306
PG13  13110.428941 -15874.309019  16408.394538    694.712844
PG14  23485.149108  12656.916036   -864.431678    587.560078
PG15   3199.868633 -23953.675964  10338.334741    256.410911
PG16 -17921.519817   4087.126623  18971.701356    -67.847794
PG17  12807.193340  12575.520551 -19100.603334    455.183349
PG18  -9876.054247 -11439.536206  21887.890054   -656.199478
PG19  15079.199504   1992.978179 -21916.290554    591.003980
PG20  22069.312483  -3433.239020  14366.206681    366.762618
PG21 -14598.262554  19183.360949  -9387.644757    101.666253
PG22  23406.598834   8487.555431  -8408.110154    -94.305499
PG23 -18619.465546 -16599.198847   9498.531455    411.838900
PG24  10015.153993 -20464.371163 -13786.317663   -459.412247
PG25 -12475.913496 -18512.716091 -14949.769052    496.083548
PG26 -24248.755877  -1590.105500  10978.560852    -65.053124
PG27 -12698.030805  13183.970625  18771.373277    -32.471397
PG28 -22208.873479   2594.884596 -14352.234484   -545.418989
PG29  -4634.539765 -24661.210783   8469.187273   -543.414506
PG30  18633.962982   4618.145798  18618.825408   -230.028574
PG31 -24438.823514   8699.682768  -6770.956622   -216.946306
PG32 -14682.711532  -7072.241580 -20780.074895   -533.859908
PJ02 -27396.098091  21209.327492  29215.493124     -0.835454
PJ03 -35226.874782  22663.952182   -627.954284     -0.319746
PR01  12482.432398  21325.825416   6358.292011    112.634913
PR02  13246.558174   8576.823803  20066.087664    -38.074337
PR03   7247.213187 -10016.341187  22372.990978    115.694392
PR04  -2370.418910 -22165.190007  12450.216662    274.397149
PR05 -10697.949730 -22798.792447  -4126.896519    144.432208
PR06   1675.760034  21380.187973 -13802.267236   -131.390933
PR07  -7108.499481  10191.443284 -22222.853227     99.632982
PR08   2753.161353  22255.880036 -12054.198017     -6.313857
PR09 -25227.208163  -3290.745562  -1061.391208    234.452018
PR11  -5324.333775  10203.411748  22766.757185     -3.979141
PR12  15581.717799  10552.408645  17228.687416     50.080687
PR14  20009.479091  -4784.314774 -15088.616382     27.660985
PR15   3401.571986 -10670.931085 -22906.809732     71.782484
PR16 -15486.426431 -10422.255432 -17364.829182     32.793744
PR17  17568.199637 -17381.531867  -6232.608260    161.022360
PR18  11056.760167 -20685.198696  10112.085538    183.981752
PR19    728.891747 -14903.005934  20692.934667   -306.969209
PR20 -14642.135039   2582.540337  20725.744271   -125.050628
PR21 -17916.228739  16531.148490   7550.373937   -171.611376
PR22 -10499.025580  20384.079738 -11132.228918    -57.882970
PR24  15061.844428  -3530.094392 -20257.700672    -89.874529
EOF
